start=new Date('2021-08-30T00:00:00.000Z').valueOf();
sats=[{"EPOCH":"2021-08-29T15:59:21.403680","TLE_LINE2":"2 45552  53.0554 307.3421 0000793 127.1107 232.9955 15.06398155 76217","GP_ID":"183697624","OBJECT_NAME":"STARLINK-1322","EPHEMERIS_TYPE":"0","MEAN_ANOMALY":"232.9955","MEAN_MOTION_DOT":"-0.00000485","TLE_LINE1":"1 45552U 20025X   21241.66621995 -.00000485  00000-0 -13719-4 0  9998","ECCENTRICITY":"0.00007930","OBJECT_TYPE":"PAYLOAD","CLASSIFICATION_TYPE":"U","CENTER_NAME":"EARTH","REF_FRAME":"TEME","PERIAPSIS":"546.670","NORAD_CAT_ID":"45552","TIME_SYSTEM":"UTC","MEAN_ELEMENT_THEORY":"SGP4","REV_AT_EPOCH":"7621","LAUNCH_DATE":"2020-04-22","SEMIMAJOR_AXIS":"6925.354","ARG_OF_PERICENTER":"127.1107","RCS_SIZE":"LARGE","APOAPSIS":"547.768","INCLINATION":"53.0554","MEAN_MOTION_DDOT":"0.0000000000000","DECAY_DATE":null,"BSTAR":"-0.00001371900000","FILE":"3105271","SITE":"AFETR","COUNTRY_CODE":"US","MEAN_MOTION":"15.06398155","PERIOD":"95.592","ELEMENT_SET_NO":"999","RA_OF_ASC_NODE":"307.3421","OBJECT_ID":"2020-025X"},{"OBJECT_ID":"2020-025Y","RA_OF_ASC_NODE":"306.3772","ELEMENT_SET_NO":"999","PERIOD":"95.591","COUNTRY_CODE":"US","MEAN_MOTION":"15.06416223","SITE":"AFETR","FILE":"3105271","BSTAR":"0.00030275000000","DECAY_DATE":null,"MEAN_MOTION_DDOT":"0.0000000000000","INCLINATION":"53.0544","APOAPSIS":"547.857","RCS_SIZE":"LARGE","ARG_OF_PERICENTER":"81.2071","SEMIMAJOR_AXIS":"6925.299","LAUNCH_DATE":"2020-04-22","REV_AT_EPOCH":"7496","MEAN_ELEMENT_THEORY":"SGP4","NORAD_CAT_ID":"45553","TIME_SYSTEM":"UTC","PERIAPSIS":"546.471","REF_FRAME":"TEME","CENTER_NAME":"EARTH","CLASSIFICATION_TYPE":"U","OBJECT_TYPE":"PAYLOAD","ECCENTRICITY":"0.00010010","TLE_LINE1":"1 45553U 20025Y   21241.87999763  .00004233  00000-0  30275-3 0  9991","MEAN_ANOMALY":"278.9031","MEAN_MOTION_DOT":"0.00004233","EPHEMERIS_TYPE":"0","OBJECT_NAME":"STARLINK-1323","TLE_LINE2":"2 45553  53.0544 306.3772 0001001  81.2071 278.9031 15.06416223 74960","GP_ID":"183698375","EPOCH":"2021-08-29T21:07:11.795232"},{"TLE_LINE2":"2 45554  53.0558 306.4128 0000935 101.5403 258.5691 15.06403579 76252","GP_ID":"183698626","EPOCH":"2021-08-29T20:56:35.398752","OBJECT_NAME":"STARLINK-1325","MEAN_MOTION_DOT":"0.00000614","MEAN_ANOMALY":"258.5691","EPHEMERIS_TYPE":"0","TLE_LINE1":"1 45554U 20025Z   21241.87263193  .00000614  00000-0  60061-4 0  9999","ECCENTRICITY":"0.00009350","CLASSIFICATION_TYPE":"U","CENTER_NAME":"EARTH","OBJECT_TYPE":"PAYLOAD","PERIAPSIS":"546.555","TIME_SYSTEM":"UTC","NORAD_CAT_ID":"45554","REF_FRAME":"TEME","LAUNCH_DATE":"2020-04-22","SEMIMAJOR_AXIS":"6925.338","REV_AT_EPOCH":"7625","MEAN_ELEMENT_THEORY":"SGP4","ARG_OF_PERICENTER":"101.5403","INCLINATION":"53.0558","APOAPSIS":"547.850","RCS_SIZE":"LARGE","MEAN_MOTION_DDOT":"0.0000000000000","FILE":"3105271","DECAY_DATE":null,"BSTAR":"0.00006006100000","SITE":"AFETR","PERIOD":"95.592","MEAN_MOTION":"15.06403579","COUNTRY_CODE":"US","OBJECT_ID":"2020-025Z","RA_OF_ASC_NODE":"306.4128","ELEMENT_SET_NO":"999"},{"PERIOD":"95.592","MEAN_MOTION":"15.06402128","COUNTRY_CODE":"US","SITE":"AFETR","RA_OF_ASC_NODE":"306.2790","OBJECT_ID":"2020-025AA","ELEMENT_SET_NO":"999","INCLINATION":"53.0548","RCS_SIZE":"LARGE","APOAPSIS":"547.816","ARG_OF_PERICENTER":"95.1530","FILE":"3105271","BSTAR":"0.00010069000000","DECAY_DATE":null,"MEAN_MOTION_DDOT":"0.0000000000000","CENTER_NAME":"EARTH","CLASSIFICATION_TYPE":"U","OBJECT_TYPE":"PAYLOAD","ECCENTRICITY":"0.00008800","SEMIMAJOR_AXIS":"6925.342","LAUNCH_DATE":"2020-04-22","REV_AT_EPOCH":"7625","MEAN_ELEMENT_THEORY":"SGP4","NORAD_CAT_ID":"45555","TIME_SYSTEM":"UTC","PERIAPSIS":"546.598","REF_FRAME":"TEME","OBJECT_NAME":"STARLINK-1327","GP_ID":"183699377","TLE_LINE2":"2 45555  53.0548 306.2790 0000880  95.1530 264.9560 15.06402128 76258","EPOCH":"2021-08-29T21:39:02.699712","TLE_LINE1":"1 45555U 20025AA  21241.90211458  .00001219  00000-0  10069-3 0  9995","MEAN_MOTION_DOT":"0.00001219","MEAN_ANOMALY":"264.9560","EPHEMERIS_TYPE":"0"},{"SITE":"AFETR","PERIOD":"95.592","MEAN_MOTION":"15.06401813","COUNTRY_CODE":"US","RA_OF_ASC_NODE":"306.3983","OBJECT_ID":"2020-025AB","ELEMENT_SET_NO":"999","ARG_OF_PERICENTER":"115.3688","INCLINATION":"53.0548","RCS_SIZE":"LARGE","APOAPSIS":"547.601","MEAN_MOTION_DDOT":"0.0000000000000","FILE":"3105271","BSTAR":"-0.00000939230000","DECAY_DATE":null,"ECCENTRICITY":"0.00005680","CENTER_NAME":"EARTH","CLASSIFICATION_TYPE":"U","OBJECT_TYPE":"PAYLOAD","NORAD_CAT_ID":"45556","TIME_SYSTEM":"UTC","PERIAPSIS":"546.815","REF_FRAME":"TEME","SEMIMAJOR_AXIS":"6925.343","LAUNCH_DATE":"2020-04-22","REV_AT_EPOCH":"7625","MEAN_ELEMENT_THEORY":"SGP4","EPOCH":"2021-08-29T21:01:54.022944","TLE_LINE2":"2 45556  53.0548 306.3983 0000568 115.3688 244.7360 15.06401813 76250","GP_ID":"183698125","OBJECT_NAME":"STARLINK-1334","MEAN_ANOMALY":"244.7360","MEAN_MOTION_DOT":"-0.00000421","EPHEMERIS_TYPE":"0","TLE_LINE1":"1 45556U 20025AB  21241.87631971 -.00000421  00000-0 -93923-5 0  9996"},{"EPHEMERIS_TYPE":"0","MEAN_MOTION_DOT":"-0.00000197","MEAN_ANOMALY":"255.5264","TLE_LINE1":"1 45557U 20025AC  21241.88369979 -.00000197  00000-0  56629-5 0  9995","TLE_LINE2":"2 45557  53.0557 306.3609 0000751 104.5808 255.5264 15.06386959 76250","EPOCH":"2021-08-29T21:12:31.661856","GP_ID":"183697875","OBJECT_NAME":"STARLINK-1336","REF_FRAME":"TEME","NORAD_CAT_ID":"45557","TIME_SYSTEM":"UTC","PERIAPSIS":"546.733","MEAN_ELEMENT_THEORY":"SGP4","REV_AT_EPOCH":"7625","SEMIMAJOR_AXIS":"6925.389","LAUNCH_DATE":"2020-04-22","ECCENTRICITY":"0.00007510","OBJECT_TYPE":"PAYLOAD","CENTER_NAME":"EARTH","CLASSIFICATION_TYPE":"U","MEAN_MOTION_DDOT":"0.0000000000000","BSTAR":"0.00000566290000","DECAY_DATE":null,"FILE":"3105271","ARG_OF_PERICENTER":"104.5808","RCS_SIZE":"LARGE","APOAPSIS":"547.774","INCLINATION":"53.0557","ELEMENT_SET_NO":"999","RA_OF_ASC_NODE":"306.3609","OBJECT_ID":"2020-025AC","SITE":"AFETR","COUNTRY_CODE":"US","MEAN_MOTION":"15.06386959","PERIOD":"95.593"},{"PERIOD":"95.592","MEAN_MOTION":"15.06402296","COUNTRY_CODE":"US","SITE":"AFETR","OBJECT_ID":"2020-025AD","RA_OF_ASC_NODE":"306.2141","ELEMENT_SET_NO":"999","INCLINATION":"53.0549","RCS_SIZE":"LARGE","APOAPSIS":"547.736","ARG_OF_PERICENTER":"104.6206","FILE":"3105271","BSTAR":"0.00004197100000","DECAY_DATE":null,"MEAN_MOTION_DDOT":"0.0000000000000","CENTER_NAME":"EARTH","CLASSIFICATION_TYPE":"U","OBJECT_TYPE":"PAYLOAD","ECCENTRICITY":"0.00007650","SEMIMAJOR_AXIS":"6925.342","LAUNCH_DATE":"2020-04-22","REV_AT_EPOCH":"7625","MEAN_ELEMENT_THEORY":"SGP4","NORAD_CAT_ID":"45558","TIME_SYSTEM":"UTC","PERIAPSIS":"546.677","REF_FRAME":"TEME","OBJECT_NAME":"STARLINK-1342","TLE_LINE2":"2 45558  53.0549 306.2141 0000765 104.6206 255.4867 15.06402296 76251","GP_ID":"183699127","EPOCH":"2021-08-29T22:00:16.666848","TLE_LINE1":"1 45558U 20025AD  21241.91685957  .00000344  00000-0  41971-4 0  9993","MEAN_ANOMALY":"255.4867","MEAN_MOTION_DOT":"0.00000344","EPHEMERIS_TYPE":"0"},{"MEAN_ANOMALY":"235.8931","MEAN_MOTION_DOT":"0.00000492","EPHEMERIS_TYPE":"0","TLE_LINE1":"1 45559U 20025AE  21241.88737283  .00000492  00000-0  51897-4 0  9992","EPOCH":"2021-08-29T21:17:49.012512","TLE_LINE2":"2 45559  53.0540 306.3452 0000775 124.2132 235.8931 15.06395100 76255","GP_ID":"183698877","OBJECT_NAME":"STARLINK-1344","NORAD_CAT_ID":"45559","TIME_SYSTEM":"UTC","PERIAPSIS":"546.692","REF_FRAME":"TEME","SEMIMAJOR_AXIS":"6925.364","LAUNCH_DATE":"2020-04-22","MEAN_ELEMENT_THEORY":"SGP4","REV_AT_EPOCH":"7625","ECCENTRICITY":"0.00007750","CENTER_NAME":"EARTH","CLASSIFICATION_TYPE":"U","OBJECT_TYPE":"PAYLOAD","MEAN_MOTION_DDOT":"0.0000000000000","FILE":"3105271","BSTAR":"0.00005189700000","DECAY_DATE":null,"ARG_OF_PERICENTER":"124.2132","INCLINATION":"53.0540","APOAPSIS":"547.765","RCS_SIZE":"LARGE","OBJECT_ID":"2020-025AE","RA_OF_ASC_NODE":"306.3452","ELEMENT_SET_NO":"999","SITE":"AFETR","PERIOD":"95.592","COUNTRY_CODE":"US","MEAN_MOTION":"15.06395100"},{"EPHEMERIS_TYPE":"0","MEAN_MOTION_DOT":"0.00001136","MEAN_ANOMALY":"250.8454","TLE_LINE1":"1 45560U 20025AF  21241.87355353  .00001136  00000-0  95121-4 0  9991","GP_ID":"183697625","TLE_LINE2":"2 45560  53.0547 296.4071 0000721 109.2613 250.8454 15.06400690 76391","EPOCH":"2021-08-29T20:57:55.024992","OBJECT_NAME":"STARLINK-1346","REF_FRAME":"TEME","PERIAPSIS":"546.712","NORAD_CAT_ID":"45560","TIME_SYSTEM":"UTC","MEAN_ELEMENT_THEORY":"SGP4","REV_AT_EPOCH":"7639","LAUNCH_DATE":"2020-04-22","SEMIMAJOR_AXIS":"6925.346","ECCENTRICITY":"0.00007210","OBJECT_TYPE":"PAYLOAD","CLASSIFICATION_TYPE":"U","CENTER_NAME":"EARTH","MEAN_MOTION_DDOT":"0.0000000000000","DECAY_DATE":null,"BSTAR":"0.00009512100000","FILE":"3105271","ARG_OF_PERICENTER":"109.2613","APOAPSIS":"547.711","RCS_SIZE":"LARGE","INCLINATION":"53.0547","ELEMENT_SET_NO":"999","OBJECT_ID":"2020-025AF","RA_OF_ASC_NODE":"296.4071","SITE":"AFETR","MEAN_MOTION":"15.06400690","COUNTRY_CODE":"US","PERIOD":"95.592"},{"ELEMENT_SET_NO":"999","RA_OF_ASC_NODE":"221.3805","OBJECT_ID":"2020-025AG","SITE":"AFETR","COUNTRY_CODE":"US","MEAN_MOTION":"15.06794012","PERIOD":"95.567","MEAN_MOTION_DDOT":"0.0000000000000","DECAY_DATE":null,"BSTAR":"0.00066568000000","FILE":"3105271","ARG_OF_PERICENTER":"83.3721","RCS_SIZE":"LARGE","APOAPSIS":"547.311","INCLINATION":"53.0578","REF_FRAME":"TEME","PERIAPSIS":"544.702","TIME_SYSTEM":"UTC","NORAD_CAT_ID":"45561","REV_AT_EPOCH":"7744","MEAN_ELEMENT_THEORY":"SGP4","LAUNCH_DATE":"2020-04-22","SEMIMAJOR_AXIS":"6924.141","ECCENTRICITY":"0.00018840","OBJECT_TYPE":"PAYLOAD","CLASSIFICATION_TYPE":"U","CENTER_NAME":"EARTH","EPHEMERIS_TYPE":"0","MEAN_ANOMALY":"276.7483","MEAN_MOTION_DOT":"0.00009753","TLE_LINE1":"1 45561U 20025AG  21241.86209674  .00009753  00000-0  66568-3 0  9990","TLE_LINE2":"2 45561  53.0578 221.3805 0001884  83.3721 276.7483 15.06794012 77441","EPOCH":"2021-08-29T20:41:25.158336","GP_ID":"183698376","OBJECT_NAME":"STARLINK-1348"}];
